NORAD_CAT_ID,OBJECT_NAME,OBJECT_TYPE,EPOCH,MEAN_MOTION,ECCENTRICITY,INCLINATION,RA_OF_ASC_NODE,ARG_OF_PERICENTER,MEAN_ANOMALY,BSTAR,MEAN_MOTION_DOT,MEAN_MOTION_DDOT,TLE_LINE0,TLE_LINE1,TLE_LINE2,SEMIMAJOR_AXIS,PERIOD,APOGEE,PERIGEE,DECAYED
52623.0,STARLINK-3986,PAYLOAD,2024-06-01 18:10:18,15.08832787,0.0001403,53.2184,288.825,90.5765,269.5388,-1.6079e-05,-5.44e-06,0.0,0 STARLINK-3986,1 52623U 22052AB  24153.75715765 -.00000544  00000-0 -16079-4 0  9999,2 52623  53.2184 288.8250 0001403  90.5765 269.5388 15.08832787113854,6917.902,95.438,540.738,538.797,0.0
52623.0,STARLINK-3986,PAYLOAD,2024-06-02 02:07:13,15.08844053,0.000136,53.2187,287.3395,83.3701,276.7446,-2.8632e-06,-3.33e-06,0.0,0 STARLINK-3986,1 52623U 22052AB  24154.08835039 -.00000333  00000-0 -28632-5 0  9998,2 52623  53.2187 287.3395 0001360  83.3701 276.7446 15.08844053113903,6917.868,95.437,540.674,538.792,0.0
52623.0,STARLINK-3986,PAYLOAD,2024-06-02 08:28:46,15.08830361,0.0001127,53.2174,286.1515,89.4856,270.6265,0.00012466,1.696e-05,0.0,0 STARLINK-3986,1 52623U 22052AB  24154.35331612  .00001696  00000-0  12466-3 0  9993,2 52623  53.2174 286.1515 0001127  89.4856 270.6265 15.08830361113942,6917.91,95.438,540.555,538.995,0.0
52623.0,STARLINK-3986,PAYLOAD,2024-06-02 14:50:19,15.08831209,0.0001129,53.2175,284.9617,88.7501,271.362,0.00012442,1.692e-05,0.0,0 STARLINK-3986,1 52623U 22052AB  24154.61827772  .00001692  00000-0  12442-3 0  9999,2 52623  53.2175 284.9617 0001129  88.7501 271.3620 15.08831209113601,6917.907,95.438,540.553,538.991,0.0
52623.0,STARLINK-3986,PAYLOAD,2024-06-03 01:58:00,15.08846697,0.0001576,53.2176,282.8797,87.1586,272.9586,8.523e-05,1.069e-05,0.0,0 STARLINK-3986,1 52623U 22052AB  24155.08194880  .00001069  00000-0  85230-4 0  9992,2 52623  53.2176 282.8797 0001576  87.1586 272.9586 15.08846697114055,6917.86,95.437,540.815,538.635,0.0
52623.0,STARLINK-3986,PAYLOAD,2024-06-03 08:19:33,15.0883683,0.0001623,53.2165,281.6912,88.6664,271.4514,0.00020348,2.952e-05,0.0,0 STARLINK-3986,1 52623U 22052AB  24155.34691342  .00002952  00000-0  20348-3 0  9996,2 52623  53.2165 281.6912 0001623  88.6664 271.4514 15.08836830114092,6917.89,95.438,540.878,538.632,0.0
52623.0,STARLINK-3986,PAYLOAD,2024-06-03 14:41:05,15.08840022,0.0001681,53.2163,280.5019,88.3134,271.8051,0.0002095,3.048e-05,0.0,0 STARLINK-3986,1 52623U 22052AB  24155.61187230  .00003048  00000-0  20950-3 0  9998,2 52623  53.2163 280.5019 0001681  88.3134 271.8051 15.08840022113759,6917.88,95.438,540.908,538.582,0.0
52623.0,STARLINK-3986,PAYLOAD,2024-06-04 11:21:07,15.08803709,0.0001779,53.2136,276.6315,111.7616,248.3565,0.00073321,0.00011389,0.0,0 STARLINK-3986,1 52623U 22052AB  24156.47300481  .00011389  00000-0  73321-3 0  9995,2 52623  53.2136 276.6315 0001779 111.7616 248.3565 15.08803709114265,6917.991,95.44,541.087,538.626,0.0
52623.0,STARLINK-3986,PAYLOAD,2024-06-04 14:31:52,15.08842058,0.0001313,53.2158,276.0371,103.1744,256.9395,0.00017876,2.558e-05,0.0,0 STARLINK-3986,1 52623U 22052AB  24156.60547015  .00002558  00000-0  17876-3 0  9997,2 52623  53.2158 276.0371 0001313 103.1744 256.9395 15.08842058113902,6917.874,95.437,540.647,538.831,0.0
52623.0,STARLINK-3986,PAYLOAD,2024-06-05 11:11:54,15.08822738,0.0001618,53.2137,272.1714,109.0213,251.0955,-0.00013146,-2.379e-05,0.0,0 STARLINK-3986,1 52623U 22052AB  24157.46660672 -.00002379  00000-0 -13146-3 0  9996,2 52623  53.2137 272.1714 0001618 109.0213 251.0955 15.08822738114419,6917.933,95.439,540.917,538.679,0.0
52623.0,STARLINK-3986,PAYLOAD,2024-06-05 14:22:41,15.08825346,0.0001521,53.214,271.5765,105.3999,254.7162,-0.00010263,-1.92e-05,0.0,0 STARLINK-3986,1 52623U 22052AB  24157.59908575 -.00001920  00000-0 -10263-3 0  9995,2 52623  53.2140 271.5765 0001521 105.3999 254.7162 15.08825346114053,6917.925,95.438,540.842,538.738,0.0
52623.0,STARLINK-3986,PAYLOAD,2024-06-05 17:33:27,15.08826937,0.0001375,53.2168,270.9827,106.4201,253.6942,-0.00011782,-2.162e-05,0.0,0 STARLINK-3986,1 52623U 22052AB  24157.73156620 -.00002162  00000-0 -11782-3 0  9993,2 52623  53.2168 270.9827 0001375 106.4201 253.6942 15.08826937114073,6917.92,95.438,540.737,538.834,0.0
52623.0,STARLINK-3986,PAYLOAD,2024-06-06 11:02:41,15.0883327,0.0001168,53.2194,267.713,103.046,257.0662,7.2167e-05,8.61e-06,0.0,0 STARLINK-3986,1 52623U 22052AB  24158.46020052  .00000861  00000-0  72167-4 0  9990,2 52623  53.2194 267.7130 0001168 103.0460 257.0662 15.08833270114562,6917.901,95.438,540.574,538.958,0.0
52623.0,STARLINK-3986,PAYLOAD,2024-06-06 14:13:26,15.08845299,0.0001232,53.2169,267.1165,97.68,262.4333,0.00013016,1.785e-05,0.0,0 STARLINK-3986,1 52623U 22052AB  24158.59267227  .00001785  00000-0  13016-3 0  9994,2 52623  53.2169 267.1165 0001232  97.6800 262.4333 15.08845299114204,6917.864,95.437,540.581,538.877,0.0
52623.0,STARLINK-3986,PAYLOAD,2024-06-07 14:04:14,15.08829281,0.0001216,53.2168,262.6587,83.7711,276.342,0.00020924,3.043e-05,0.0,0 STARLINK-3986,1 52623U 22052AB  24159.58628455  .00003043  00000-0  20924-3 0  9993,2 52623  53.2168 262.6587 0001216  83.7711 276.3420 15.08829281114350,6917.913,95.438,540.619,538.937,0.0
52623.0,STARLINK-3986,PAYLOAD,2024-06-07 17:15:01,15.08831056,0.0001198,53.2165,262.0632,88.5682,271.5447,0.00023798,3.501e-05,0.0,0 STARLINK-3986,1 52623U 22052AB  24159.71876265  .00003501  00000-0  23798-3 0  9993,2 52623  53.2165 262.0632 0001198  88.5682 271.5447 15.08831056114754,6917.908,95.438,540.601,538.944,0.0
52623.0,STARLINK-3986,PAYLOAD,2024-06-07 23:36:33,15.08844586,0.0001238,53.2188,260.8754,89.6469,270.4665,0.00020678,3.005e-05,0.0,0 STARLINK-3986,1 52623U 22052AB  24159.98371539  .00003005  00000-0  20678-3 0  9999,2 52623  53.2188 260.8754 0001238  89.6469 270.4665 15.08844586114796,6917.866,95.437,540.588,538.875,0.0
52623.0,STARLINK-3986,PAYLOAD,2024-06-08 12:19:37,15.08857715,0.00014,53.2167,258.4929,72.9185,287.196,0.00013937,1.932e-05,0.0,0 STARLINK-3986,1 52623U 22052AB  24160.51363054  .00001932  00000-0  13937-3 0  9990,2 52623  53.2167 258.4929 0001400  72.9185 287.1960 15.08857715114499,6917.826,95.436,540.66,538.723,0.0
52623.0,STARLINK-3986,PAYLOAD,2024-06-08 15:30:22,15.0887755,0.0001241,53.2163,257.8996,108.9153,251.1973,0.00032055,4.822e-05,0.0,0 STARLINK-3986,1 52623U 22052AB  24160.64608898  .00004822  00000-0  32055-3 0  9995,2 52623  53.2163 257.8996 0001241 108.9153 251.1973 15.08877550114898,6917.766,95.435,540.489,538.772,0.0
52623.0,STARLINK-3986,PAYLOAD,2024-06-09 12:10:26,15.08819017,0.0001546,53.2183,254.0363,89.4041,270.7128,-0.00010441,-1.948e-05,0.0,0 STARLINK-3986,1 52623U 22052AB  24161.50725543 -.00001948  00000-0 -10441-3 0  9991,2 52623  53.2183 254.0363 0001546  89.4041 270.7128 15.08819017115023,6917.945,95.439,540.879,538.74,0.0
52623.0,STARLINK-3986,PAYLOAD,2024-06-09 15:21:13,15.08820593,0.0001606,53.2172,253.4407,85.8617,274.2559,-9.0813e-05,-1.732e-05,0.0,0 STARLINK-3986,1 52623U 22052AB  24161.63973551 -.00001732  00000-0 -90813-4 0  9992,2 52623  53.2172 253.4407 0001606  85.8617 274.2559 15.08820593114666,6917.94,95.439,540.916,538.694,0.0
52623.0,STARLINK-3986,PAYLOAD,2024-06-10 05:39:40,15.08835217,0.0001641,53.219,250.7674,89.2873,270.8307,-1.7587e-05,-5.68e-06,0.0,0 STARLINK-3986,1 52623U 22052AB  24162.23588642 -.00000568  00000-0 -17587-4 0  9995,2 52623  53.2190 250.7674 0001641  89.2873 270.8307 15.08835217115138,6917.895,95.438,540.895,538.625,0.0
52623.0,STARLINK-3986,PAYLOAD,2024-06-10 13:36:35,15.08838439,0.0001272,53.2169,249.2788,93.4427,266.671,4.9213e-05,4.95e-06,0.0,0 STARLINK-3986,1 52623U 22052AB  24162.56708295  .00000495  00000-0  49213-4 0  9997,2 52623  53.2169 249.2788 0001272  93.4427 266.6710 15.08838439114808,6917.885,95.438,540.63,538.87,0.0
52623.0,STARLINK-3986,PAYLOAD,2024-06-10 23:08:53,15.08863281,0.0001335,53.2184,247.491,91.5699,268.5446,-8.5585e-05,-1.651e-05,0.0,0 STARLINK-3986,1 52623U 22052AB  24162.96450548 -.00001651  00000-0 -85585-4 0  9995,2 52623  53.2184 247.4910 0001335  91.5699 268.5446 15.08863281115241,6917.809,95.436,540.598,538.751,0.0
52623.0,STARLINK-3986,PAYLOAD,2024-06-11 11:51:59,15.08828277,0.0001587,53.2177,245.1136,97.9927,262.1245,0.00029448,4.4e-05,0.0,0 STARLINK-3986,1 52623U 22052AB  24163.49444308  .00004400  00000-0  29448-3 0  9999,2 52623  53.2177 245.1136 0001587  97.9927 262.1245 15.08828277114940,6917.916,95.438,540.879,538.683,0.0
52623.0,STARLINK-3986,PAYLOAD,2024-06-12 05:21:14,15.08840144,0.0002272,53.217,241.8438,92.3349,267.7903,0.00018947,2.728e-05,0.0,0 STARLINK-3986,1 52623U 22052AB  24164.22308292  .00002728  00000-0  18947-3 0  9995,2 52623  53.2170 241.8438 0002272  92.3349 267.7903 15.08840144115052,6917.88,95.438,541.317,538.173,0.0
52623.0,STARLINK-3986,PAYLOAD,2024-06-12 11:42:46,15.08840209,9.5e-05,53.2164,240.6525,107.2801,252.8295,0.00023336,3.428e-05,0.0,0 STARLINK-3986,1 52623U 22052AB  24164.48804372  .00003428  00000-0  23336-3 0  9999,2 52623  53.2164 240.6525 0000950 107.2801 252.8295 15.08840209115094,6917.88,95.438,540.402,539.088,0.0
52623.0,STARLINK-3986,PAYLOAD,2024-06-13 05:12:00,15.08855775,0.0001246,53.2162,237.382,98.5296,261.5838,0.0002778,4.138e-05,0.0,0 STARLINK-3986,1 52623U 22052AB  24165.21667031  .00004138  00000-0  27780-3 0  9996,2 52623  53.2162 237.3820 0001246  98.5296 261.5838 15.08855775115580,6917.832,95.437,540.559,538.835,0.0
52623.0,STARLINK-3986,PAYLOAD,2024-06-13 11:33:33,15.0884243,0.0001316,53.2159,236.1924,91.3803,268.734,7.0346e-05,8.32e-06,0.0,0 STARLINK-3986,1 52623U 22052AB  24165.48163566  .00000832  00000-0  70346-4 0  9993,2 52623  53.2159 236.1924 0001316  91.3803 268.7340 15.08842430115627,6917.873,95.437,540.648,538.828,0.0
52623.0,STARLINK-3986,PAYLOAD,2024-06-14 11:24:21,15.08825806,0.0001226,53.2165,231.7304,105.2107,254.9021,5.9209e-05,6.54e-06,0.0,0 STARLINK-3986,1 52623U 22052AB  24166.47524798  .00000654  00000-0  59209-4 0  9998,2 52623  53.2165 231.7304 0001226 105.2107 254.9021 15.08825806115394,6917.924,95.438,540.637,538.941,0.0
